{
  "type": "FeatureCollection",
  "features": [
    {
      "type": "Feature",
      "properties": {
        "norad_id": 66836,
        "name": "STARLINK-35838",
        "group": "last-30-days",
        "lat": -52.29235686925532,
        "lon": 151.43488114553625,
        "alt_km": 413.7530829634443,
        "timestamp": "2025-12-19T14:48:34.965225+00:00",
        "meta_object_name": "STARLINK-35838",
        "meta_object_id": "2025-280R",
        "meta_epoch": "2025-12-19T06:00:02.000160",
        "meta_mean_motion": 15.54538614,
        "meta_eccentricity": 0.00037404,
        "meta_inclination": 69.999,
        "meta_ra_of_asc_node": 180.5507,
        "meta_arg_of_pericenter": 271.4295,
        "meta_mean_anomaly": 139.0804,
        "meta_ephemeris_type": 0,
        "meta_classification_type": "U",
        "meta_norad_cat_id": 66836,
        "meta_element_set_no": 999,
        "meta_rev_at_epoch": 394,
        "meta_bstar": -0.042350267,
        "meta_mean_motion_dot": -0.02444979,
        "meta_mean_motion_ddot": 0,
        "tle_line1": "1 66836U 25280R   25353.25002315 -.02444979  00000+0 -42350-1 0  9997",
        "tle_line2": "2 66836  69.9990 180.5507 0003740 271.4295 139.0804 15.54538614  3946"
      },
      "geometry": {
        "type": "Point",
        "coordinates": [
          151.43488114553625,
          -52.29235686925532
        ]
      }
    },
    {
      "type": "Feature",
      "properties": {
        "norad_id": 66837,
        "name": "STARLINK-35729",
        "group": "last-30-days",
        "lat": -50.69212203151059,
        "lon": 153.12470023394977,
        "alt_km": 413.544538450682,
        "timestamp": "2025-12-19T14:48:34.965234+00:00",
        "meta_object_name": "STARLINK-35729",
        "meta_object_id": "2025-280S",
        "meta_epoch": "2025-12-19T06:00:02.000160",
        "meta_mean_motion": 15.54536502,
        "meta_eccentricity": 0.0003967,
        "meta_inclination": 69.999,
        "meta_ra_of_asc_node": 180.5483,
        "meta_arg_of_pericenter": 273.9009,
        "meta_mean_anomaly": 138.5259,
        "meta_ephemeris_type": 0,
        "meta_classification_type": "U",
        "meta_norad_cat_id": 66837,
        "meta_element_set_no": 999,
        "meta_rev_at_epoch": 394,
        "meta_bstar": -0.04221314,
        "meta_mean_motion_dot": -0.02438184,
        "meta_mean_motion_ddot": 0,
        "tle_line1": "1 66837U 25280S   25353.25002315 -.02438184  00000+0 -42213-1 0  9997",
        "tle_line2": "2 66837  69.9990 180.5483 0003967 273.9009 138.5259 15.54536502  3943"
      },
      "geometry": {
        "type": "Point",
        "coordinates": [
          153.12470023394977,
          -50.69212203151059
        ]
      }
    },
    {
      "type": "Feature",
      "properties": {
        "norad_id": 66838,
        "name": "STARLINK-35886",
        "group": "last-30-days",
        "lat": -47.433989144245594,
        "lon": 156.17188173520412,
        "alt_km": 413.74345808223916,
        "timestamp": "2025-12-19T14:48:34.965244+00:00",
        "meta_object_name": "STARLINK-35886",
        "meta_object_id": "2025-280T",
        "meta_epoch": "2025-12-19T06:00:02.000160",
        "meta_mean_motion": 15.54525438,
        "meta_eccentricity": 0.00036373,
        "meta_inclination": 69.9991,
        "meta_ra_of_asc_node": 180.5435,
        "meta_arg_of_pericenter": 273.161,
        "meta_mean_anomaly": 143.1002,
        "meta_ephemeris_type": 0,
        "meta_classification_type": "U",
        "meta_norad_cat_id": 66838,
        "meta_element_set_no": 999,
        "meta_rev_at_epoch": 394,
        "meta_bstar": -0.041961017,
        "meta_mean_motion_dot": -0.02424283,
        "meta_mean_motion_ddot": 0,
        "tle_line1": "1 66838U 25280T   25353.25002315 -.02424283  00000+0 -41961-1 0  9992",
        "tle_line2": "2 66838  69.9991 180.5435 0003637 273.1610 143.1002 15.54525438  3940"
      },
      "geometry": {
        "type": "Point",
        "coordinates": [
          156.17188173520412,
          -47.433989144245594
        ]
      }
    },
    {
      "type": "Feature",
      "properties": {
        "norad_id": 66839,
        "name": "STARLINK-35717",
        "group": "last-30-days",
        "lat": -49.070460409996606,
        "lon": 154.70123079337176,
        "alt_km": 413.78269571543024,
        "timestamp": "2025-12-19T14:48:34.965254+00:00",
        "meta_object_name": "STARLINK-35717",
        "meta_object_id": "2025-280U",
        "meta_epoch": "2025-12-19T06:00:02.000160",
        "meta_mean_motion": 15.54545453,
        "meta_eccentricity": 0.00037317,
        "meta_inclination": 69.9994,
        "meta_ra_of_asc_node": 180.5458,
        "meta_arg_of_pericenter": 270.8872,
        "meta_mean_anomaly": 143.4546,
        "meta_ephemeris_type": 0,
        "meta_classification_type": "U",
        "meta_norad_cat_id": 66839,
        "meta_element_set_no": 999,
        "meta_rev_at_epoch": 394,
        "meta_bstar": -0.0425525,
        "meta_mean_motion_dot": -0.02455645,
        "meta_mean_motion_ddot": 0,
        "tle_line1": "1 66839U 25280U   25353.25002315 -.02455645  00000+0 -42552-1 0  9996",
        "tle_line2": "2 66839  69.9994 180.5458 0003731 270.8872 143.4546 15.54545453  3943"
      },
      "geometry": {
        "type": "Point",
        "coordinates": [
          154.70123079337176,
          -49.070460409996606
        ]
      }
    },
    {
      "type": "Feature",
      "properties": {
        "norad_id": 66840,
        "name": "STARLINK-35837",
        "group": "last-30-days",
        "lat": -45.77247658080303,
        "lon": 157.56004483253335,
        "alt_km": 413.7436533183618,
        "timestamp": "2025-12-19T14:48:34.965264+00:00",
        "meta_object_name": "STARLINK-35837",
        "meta_object_id": "2025-280V",
        "meta_epoch": "2025-12-19T06:00:02.000160",
        "meta_mean_motion": 15.54533008,
        "meta_eccentricity": 0.00036391,
        "meta_inclination": 69.9992,
        "meta_ra_of_asc_node": 180.5416,
        "meta_arg_of_pericenter": 273.2308,
        "meta_mean_anomaly": 144.9465,
        "meta_ephemeris_type": 0,
        "meta_classification_type": "U",
        "meta_norad_cat_id": 66840,
        "meta_element_set_no": 999,
        "meta_rev_at_epoch": 394,
        "meta_bstar": -0.042199097,
        "meta_mean_motion_dot": -0.02436839,
        "meta_mean_motion_ddot": 0,
        "tle_line1": "1 66840U 25280V   25353.25002315 -.02436839  00000+0 -42199-1 0  9999",
        "tle_line2": "2 66840  69.9992 180.5416 0003639 273.2308 144.9465 15.54533008  3944"
      },
      "geometry": {
        "type": "Point",
        "coordinates": [
          157.56004483253335,
          -45.77247658080303
        ]
      }
    },
    {
      "type": "Feature",
      "properties": {
        "norad_id": 66841,
        "name": "STARLINK-35715",
        "group": "last-30-days",
        "lat": -44.09402582217997,
        "lon": 158.86808140192798,
        "alt_km": 413.8025531491576,
        "timestamp": "2025-12-19T14:48:34.965276+00:00",
        "meta_object_name": "STARLINK-35715",
        "meta_object_id": "2025-280W",
        "meta_epoch": "2025-12-19T06:00:02.000160",
        "meta_mean_motion": 15.54546511,
        "meta_eccentricity": 0.0003612,
        "meta_inclination": 69.9993,
        "meta_ra_of_asc_node": 180.5396,
        "meta_arg_of_pericenter": 271.7466,
        "meta_mean_anomaly": 148.3435,
        "meta_ephemeris_type": 0,
        "meta_classification_type": "U",
        "meta_norad_cat_id": 66841,
        "meta_element_set_no": 999,
        "meta_rev_at_epoch": 394,
        "meta_bstar": -0.042561847,
        "meta_mean_motion_dot": -0.02456063,
        "meta_mean_motion_ddot": 0,
        "tle_line1": "1 66841U 25280W   25353.25002315 -.02456063  00000+0 -42562-1 0  9995",
        "tle_line2": "2 66841  69.9993 180.5396 0003612 271.7466 148.3435 15.54546511  3940"
      },
      "geometry": {
        "type": "Point",
        "coordinates": [
          158.86808140192798,
          -44.09402582217997
        ]
      }
    },
    {
      "type": "Feature",
      "properties": {
        "norad_id": 66842,
        "name": "STARLINK-35769",
        "group": "last-30-days",
        "lat": -42.40834069661583,
        "lon": 160.09855275952805,
        "alt_km": 413.67777862549974,
        "timestamp": "2025-12-19T14:48:34.965289+00:00",
        "meta_object_name": "STARLINK-35769",
        "meta_object_id": "2025-280X",
        "meta_epoch": "2025-12-19T06:00:02.000160",
        "meta_mean_motion": 15.54530801,
        "meta_eccentricity": 0.00036572,
        "meta_inclination": 69.9997,
        "meta_ra_of_asc_node": 180.5372,
        "meta_arg_of_pericenter": 274.0505,
        "meta_mean_anomaly": 147.9588,
        "meta_ephemeris_type": 0,
        "meta_classification_type": "U",
        "meta_norad_cat_id": 66842,
        "meta_element_set_no": 999,
        "meta_rev_at_epoch": 394,
        "meta_bstar": -0.042116957,
        "meta_mean_motion_dot": -0.02432561,
        "meta_mean_motion_ddot": 0,
        "tle_line1": "1 66842U 25280X   25353.25002315 -.02432561  00000+0 -42117-1 0  9999",
        "tle_line2": "2 66842  69.9997 180.5372 0003657 274.0505 147.9588 15.54530801  3947"
      },
      "geometry": {
        "type": "Point",
        "coordinates": [
          160.09855275952805,
          -42.40834069661583
        ]
      }
    }
  ]
}